ORBCOMM FM24            
1 25478U 98053D   24291.48540576  .00004031  00000+0  14028-2 0  9992
2 25478  45.0090 338.7764 0000825 269.5153  90.5600 14.36695495362801
ORBCOMM FM25            
1 25479U 98053E   24291.45360799  .00003960  00000+0  13793-2 0  9995
2 25479  45.0079 337.1799 0001742 130.1222 229.9778 14.36684337362817
ORBCOMM FM26            
1 25480U 98053F   24291.45994756  .00003740  00000+0  13243-2 0  9999
2 25480  45.0074 332.0257 0004295 148.6820 211.4284 14.35958306362740
ORBCOMM FM27            
1 25481U 98053G   24291.58206408  .00004448  00000+0  15433-2 0  9993
2 25481  45.0062 336.8284 0002405 269.9839  90.0733 14.36673400362805
ORBCOMM FM28            
1 25482U 98053H   24291.66293187  .00004348  00000+0  14996-2 0  9995
2 25482  45.0051 274.4202 0002624 190.7785 169.3007 14.37013205363622
ORBCOMM FM30            
1 25980U 99065A   24291.33696659  .00003166  00000+0  11252-2 0  9996
2 25980  45.0300 158.2903 0005772 230.2387 129.7953 14.36104400299528
ORBCOMM FM31            
1 25981U 99065B   24291.58208688  .00003457  00000+0  12249-2 0  9995
2 25981  45.0212 150.7240 0003107 256.0523 103.9979 14.36074523299119
ORBCOMM FM32            
1 25982U 99065C   24291.11735164  .00003083  00000+0  11190-2 0  9998
2 25982  45.0142 167.8451 0005130 258.4627 101.5645 14.35098420299669
