<?xml version="1.0" encoding="UTF-8"?>
<ndm xmlns:xsi="http://www.w3.org/2001/XMLSchema-instance" xsi:noNamespaceSchemaLocation="https://sanaregistry.org/r/ndmxml_unqualified/ndmxml-2.0.0-master-2.0.xsd">
<omm id="CCSDS_OMM_VERS" version="2.0">
<header><CREATION_DATE/><ORIGINATOR/></header><body><segment><metadata><OBJECT_NAME>ORBCOMM FM24</OBJECT_NAME><OBJECT_ID>1998-053D</OBJECT_ID><CENTER_NAME>EARTH</CENTER_NAME><REF_FRAME>TEME</REF_FRAME><TIME_SYSTEM>UTC</TIME_SYSTEM><MEAN_ELEMENT_THEORY>SGP4</MEAN_ELEMENT_THEORY></metadata><data><meanElements><EPOCH>2024-10-17T11:38:59.057664</EPOCH><MEAN_MOTION>14.36695495</MEAN_MOTION><ECCENTRICITY>.0000825</ECCENTRICITY><INCLINATION>45.0090</INCLINATION><RA_OF_ASC_NODE>338.7764</RA_OF_ASC_NODE><ARG_OF_PERICENTER>269.5153</ARG_OF_PERICENTER><MEAN_ANOMALY>90.5600</MEAN_ANOMALY></meanElements><tleParameters><EPHEMERIS_TYPE>0</EPHEMERIS_TYPE><CLASSIFICATION_TYPE>U</CLASSIFICATION_TYPE><NORAD_CAT_ID>25478</NORAD_CAT_ID><ELEMENT_SET_NO>999</ELEMENT_SET_NO><REV_AT_EPOCH>36280</REV_AT_EPOCH><BSTAR>.14028E-2</BSTAR><MEAN_MOTION_DOT>.4031E-4</MEAN_MOTION_DOT><MEAN_MOTION_DDOT>0</MEAN_MOTION_DDOT></tleParameters></data></segment></body></omm>
<omm id="CCSDS_OMM_VERS" version="2.0">
<header><CREATION_DATE/><ORIGINATOR/></header><body><segment><metadata><OBJECT_NAME>ORBCOMM FM25</OBJECT_NAME><OBJECT_ID>1998-053E</OBJECT_ID><CENTER_NAME>EARTH</CENTER_NAME><REF_FRAME>TEME</REF_FRAME><TIME_SYSTEM>UTC</TIME_SYSTEM><MEAN_ELEMENT_THEORY>SGP4</MEAN_ELEMENT_THEORY></metadata><data><meanElements><EPOCH>2024-10-17T10:53:11.730336</EPOCH><MEAN_MOTION>14.36684337</MEAN_MOTION><ECCENTRICITY>.0001742</ECCENTRICITY><INCLINATION>45.0079</INCLINATION><RA_OF_ASC_NODE>337.1799</RA_OF_ASC_NODE><ARG_OF_PERICENTER>130.1222</ARG_OF_PERICENTER><MEAN_ANOMALY>229.9778</MEAN_ANOMALY></meanElements><tleParameters><EPHEMERIS_TYPE>0</EPHEMERIS_TYPE><CLASSIFICATION_TYPE>U</CLASSIFICATION_TYPE><NORAD_CAT_ID>25479</NORAD_CAT_ID><ELEMENT_SET_NO>999</ELEMENT_SET_NO><REV_AT_EPOCH>36281</REV_AT_EPOCH><BSTAR>.13793E-2</BSTAR><MEAN_MOTION_DOT>.396E-4</MEAN_MOTION_DOT><MEAN_MOTION_DDOT>0</MEAN_MOTION_DDOT></tleParameters></data></segment></body></omm>
<omm id="CCSDS_OMM_VERS" version="2.0">
<header><CREATION_DATE/><ORIGINATOR/></header><body><segment><metadata><OBJECT_NAME>ORBCOMM FM26</OBJECT_NAME><OBJECT_ID>1998-053F</OBJECT_ID><CENTER_NAME>EARTH</CENTER_NAME><REF_FRAME>TEME</REF_FRAME><TIME_SYSTEM>UTC</TIME_SYSTEM><MEAN_ELEMENT_THEORY>SGP4</MEAN_ELEMENT_THEORY></metadata><data><meanElements><EPOCH>2024-10-17T11:02:19.469184</EPOCH><MEAN_MOTION>14.35958306</MEAN_MOTION><ECCENTRICITY>.0004295</ECCENTRICITY><INCLINATION>45.0074</INCLINATION><RA_OF_ASC_NODE>332.0257</RA_OF_ASC_NODE><ARG_OF_PERICENTER>148.6820</ARG_OF_PERICENTER><MEAN_ANOMALY>211.4284</MEAN_ANOMALY></meanElements><tleParameters><EPHEMERIS_TYPE>0</EPHEMERIS_TYPE><CLASSIFICATION_TYPE>U</CLASSIFICATION_TYPE><NORAD_CAT_ID>25480</NORAD_CAT_ID><ELEMENT_SET_NO>999</ELEMENT_SET_NO><REV_AT_EPOCH>36274</REV_AT_EPOCH><BSTAR>.13243E-2</BSTAR><MEAN_MOTION_DOT>.374E-4</MEAN_MOTION_DOT><MEAN_MOTION_DDOT>0</MEAN_MOTION_DDOT></tleParameters></data></segment></body></omm>
<omm id="CCSDS_OMM_VERS" version="2.0">
<header><CREATION_DATE/><ORIGINATOR/></header><body><segment><metadata><OBJECT_NAME>ORBCOMM FM27</OBJECT_NAME><OBJECT_ID>1998-053G</OBJECT_ID><CENTER_NAME>EARTH</CENTER_NAME><REF_FRAME>TEME</REF_FRAME><TIME_SYSTEM>UTC</TIME_SYSTEM><MEAN_ELEMENT_THEORY>SGP4</MEAN_ELEMENT_THEORY></metadata><data><meanElements><EPOCH>2024-10-17T13:58:10.336512</EPOCH><MEAN_MOTION>14.36673400</MEAN_MOTION><ECCENTRICITY>.0002405</ECCENTRICITY><INCLINATION>45.0062</INCLINATION><RA_OF_ASC_NODE>336.8284</RA_OF_ASC_NODE><ARG_OF_PERICENTER>269.9839</ARG_OF_PERICENTER><MEAN_ANOMALY>90.0733</MEAN_ANOMALY></meanElements><tleParameters><EPHEMERIS_TYPE>0</EPHEMERIS_TYPE><CLASSIFICATION_TYPE>U</CLASSIFICATION_TYPE><NORAD_CAT_ID>25481</NORAD_CAT_ID><ELEMENT_SET_NO>999</ELEMENT_SET_NO><REV_AT_EPOCH>36280</REV_AT_EPOCH><BSTAR>.15433E-2</BSTAR><MEAN_MOTION_DOT>.4448E-4</MEAN_MOTION_DOT><MEAN_MOTION_DDOT>0</MEAN_MOTION_DDOT></tleParameters></data></segment></body></omm>
<omm id="CCSDS_OMM_VERS" version="2.0">
<header><CREATION_DATE/><ORIGINATOR/></header><body><segment><metadata><OBJECT_NAME>ORBCOMM FM28</OBJECT_NAME><OBJECT_ID>1998-053H</OBJECT_ID><CENTER_NAME>EARTH</CENTER_NAME><REF_FRAME>TEME</REF_FRAME><TIME_SYSTEM>UTC</TIME_SYSTEM><MEAN_ELEMENT_THEORY>SGP4</MEAN_ELEMENT_THEORY></metadata><data><meanElements><EPOCH>2024-10-17T15:54:37.313568</EPOCH><MEAN_MOTION>14.37013205</MEAN_MOTION><ECCENTRICITY>.0002624</ECCENTRICITY><INCLINATION>45.0051</INCLINATION><RA_OF_ASC_NODE>274.4202</RA_OF_ASC_NODE><ARG_OF_PERICENTER>190.7785</ARG_OF_PERICENTER><MEAN_ANOMALY>169.3007</MEAN_ANOMALY></meanElements><tleParameters><EPHEMERIS_TYPE>0</EPHEMERIS_TYPE><CLASSIFICATION_TYPE>U</CLASSIFICATION_TYPE><NORAD_CAT_ID>25482</NORAD_CAT_ID><ELEMENT_SET_NO>999</ELEMENT_SET_NO><REV_AT_EPOCH>36362</REV_AT_EPOCH><BSTAR>.14996E-2</BSTAR><MEAN_MOTION_DOT>.4348E-4</MEAN_MOTION_DOT><MEAN_MOTION_DDOT>0</MEAN_MOTION_DDOT></tleParameters></data></segment></body></omm>
<omm id="CCSDS_OMM_VERS" version="2.0">
<header><CREATION_DATE/><ORIGINATOR/></header><body><segment><metadata><OBJECT_NAME>ORBCOMM FM30</OBJECT_NAME><OBJECT_ID>1999-065A</OBJECT_ID><CENTER_NAME>EARTH</CENTER_NAME><REF_FRAME>TEME</REF_FRAME><TIME_SYSTEM>UTC</TIME_SYSTEM><MEAN_ELEMENT_THEORY>SGP4</MEAN_ELEMENT_THEORY></metadata><data><meanElements><EPOCH>2024-10-17T08:05:13.913376</EPOCH><MEAN_MOTION>14.36104400</MEAN_MOTION><ECCENTRICITY>.0005772</ECCENTRICITY><INCLINATION>45.0300</INCLINATION><RA_OF_ASC_NODE>158.2903</RA_OF_ASC_NODE><ARG_OF_PERICENTER>230.2387</ARG_OF_PERICENTER><MEAN_ANOMALY>129.7953</MEAN_ANOMALY></meanElements><tleParameters><EPHEMERIS_TYPE>0</EPHEMERIS_TYPE><CLASSIFICATION_TYPE>U</CLASSIFICATION_TYPE><NORAD_CAT_ID>25980</NORAD_CAT_ID><ELEMENT_SET_NO>999</ELEMENT_SET_NO><REV_AT_EPOCH>29952</REV_AT_EPOCH><BSTAR>.11252E-2</BSTAR><MEAN_MOTION_DOT>.3166E-4</MEAN_MOTION_DOT><MEAN_MOTION_DDOT>0</MEAN_MOTION_DDOT></tleParameters></data></segment></body></omm>
<omm id="CCSDS_OMM_VERS" version="2.0">
<header><CREATION_DATE/><ORIGINATOR/></header><body><segment><metadata><OBJECT_NAME>ORBCOMM FM31</OBJECT_NAME><OBJECT_ID>1999-065B</OBJECT_ID><CENTER_NAME>EARTH</CENTER_NAME><REF_FRAME>TEME</REF_FRAME><TIME_SYSTEM>UTC</TIME_SYSTEM><MEAN_ELEMENT_THEORY>SGP4</MEAN_ELEMENT_THEORY></metadata><data><meanElements><EPOCH>2024-10-17T13:58:12.306432</EPOCH><MEAN_MOTION>14.36074523</MEAN_MOTION><ECCENTRICITY>.0003107</ECCENTRICITY><INCLINATION>45.0212</INCLINATION><RA_OF_ASC_NODE>150.7240</RA_OF_ASC_NODE><ARG_OF_PERICENTER>256.0523</ARG_OF_PERICENTER><MEAN_ANOMALY>103.9979</MEAN_ANOMALY></meanElements><tleParameters><EPHEMERIS_TYPE>0</EPHEMERIS_TYPE><CLASSIFICATION_TYPE>U</CLASSIFICATION_TYPE><NORAD_CAT_ID>25981</NORAD_CAT_ID><ELEMENT_SET_NO>999</ELEMENT_SET_NO><REV_AT_EPOCH>29911</REV_AT_EPOCH><BSTAR>.12249E-2</BSTAR><MEAN_MOTION_DOT>.3457E-4</MEAN_MOTION_DOT><MEAN_MOTION_DDOT>0</MEAN_MOTION_DDOT></tleParameters></data></segment></body></omm>
<omm id="CCSDS_OMM_VERS" version="2.0">
<header><CREATION_DATE/><ORIGINATOR/></header><body><segment><metadata><OBJECT_NAME>ORBCOMM FM32</OBJECT_NAME><OBJECT_ID>1999-065C</OBJECT_ID><CENTER_NAME>EARTH</CENTER_NAME><REF_FRAME>TEME</REF_FRAME><TIME_SYSTEM>UTC</TIME_SYSTEM><MEAN_ELEMENT_THEORY>SGP4</MEAN_ELEMENT_THEORY></metadata><data><meanElements><EPOCH>2024-10-17T02:48:59.181696</EPOCH><MEAN_MOTION>14.35098420</MEAN_MOTION><ECCENTRICITY>.000513</ECCENTRICITY><INCLINATION>45.0142</INCLINATION><RA_OF_ASC_NODE>167.8451</RA_OF_ASC_NODE><ARG_OF_PERICENTER>258.4627</ARG_OF_PERICENTER><MEAN_ANOMALY>101.5645</MEAN_ANOMALY></meanElements><tleParameters><EPHEMERIS_TYPE>0</EPHEMERIS_TYPE><CLASSIFICATION_TYPE>U</CLASSIFICATION_TYPE><NORAD_CAT_ID>25982</NORAD_CAT_ID><ELEMENT_SET_NO>999</ELEMENT_SET_NO><REV_AT_EPOCH>29966</REV_AT_EPOCH><BSTAR>.1119E-2</BSTAR><MEAN_MOTION_DOT>.3083E-4</MEAN_MOTION_DOT><MEAN_MOTION_DDOT>0</MEAN_MOTION_DDOT></tleParameters></data></segment></body></omm>

</ndm>
